{
  "type": "FeatureCollection",
  "features": [
    {
      "type": "Feature",
      "properties": {
        "norad_id": 66518,
        "name": "STARLINK-35962",
        "group": "last-30-days",
        "lat": 40.095700063991835,
        "lon": 163.7679143694751,
        "alt_km": 411.8476706818801,
        "timestamp": "2025-12-13T16:48:31.464728+00:00",
        "meta_object_name": "STARLINK-35962",
        "meta_object_id": "2025-265C",
        "meta_epoch": "2025-12-12T20:00:01.999872",
        "meta_mean_motion": 15.50692275,
        "meta_eccentricity": 0.00036229,
        "meta_inclination": 43.0002,
        "meta_ra_of_asc_node": 53.4647,
        "meta_arg_of_pericenter": 280.7952,
        "meta_mean_anomaly": 23.0003,
        "meta_ephemeris_type": 0,
        "meta_classification_type": "U",
        "meta_norad_cat_id": 66518,
        "meta_element_set_no": 999,
        "meta_rev_at_epoch": 500,
        "meta_bstar": -0.0034473834,
        "meta_mean_motion_dot": -0.00198416,
        "meta_mean_motion_ddot": 0,
        "tle_line1": "1 66518U 25265C   25346.83335648 -.00198416  00000+0 -34474-2 0  9990",
        "tle_line2": "2 66518  43.0002  53.4647 0003622 280.7952  23.0003 15.50692275  5007"
      },
      "geometry": {
        "type": "Point",
        "coordinates": [
          163.7679143694751,
          40.095700063991835
        ]
      }
    },
    {
      "type": "Feature",
      "properties": {
        "norad_id": 66519,
        "name": "STARLINK-35931",
        "group": "last-30-days",
        "lat": 39.586771103099224,
        "lon": 165.84733065542778,
        "alt_km": 411.6363987013583,
        "timestamp": "2025-12-13T16:48:31.464738+00:00",
        "meta_object_name": "STARLINK-35931",
        "meta_object_id": "2025-265D",
        "meta_epoch": "2025-12-12T20:00:01.999872",
        "meta_mean_motion": 15.50830961,
        "meta_eccentricity": 0.00016735,
        "meta_inclination": 43.0005,
        "meta_ra_of_asc_node": 53.4597,
        "meta_arg_of_pericenter": 277.2967,
        "meta_mean_anomaly": 28.4953,
        "meta_ephemeris_type": 0,
        "meta_classification_type": "U",
        "meta_norad_cat_id": 66519,
        "meta_element_set_no": 999,
        "meta_rev_at_epoch": 500,
        "meta_bstar": -0.0081905449,
        "meta_mean_motion_dot": -0.00457907,
        "meta_mean_motion_ddot": 0,
        "tle_line1": "1 66519U 25265D   25346.83335648 -.00457907  00000+0 -81905-2 0  9995",
        "tle_line2": "2 66519  43.0005  53.4597 0001673 277.2967  28.4953 15.50830961  5005"
      },
      "geometry": {
        "type": "Point",
        "coordinates": [
          165.84733065542778,
          39.586771103099224
        ]
      }
    },
    {
      "type": "Feature",
      "properties": {
        "norad_id": 66520,
        "name": "STARLINK-35952",
        "group": "last-30-days",
        "lat": 42.43600608540936,
        "lon": 127.31100251597562,
        "alt_km": 435.0842270931753,
        "timestamp": "2025-12-13T16:48:31.464748+00:00",
        "meta_object_name": "STARLINK-35952",
        "meta_object_id": "2025-265E",
        "meta_epoch": "2025-12-12T20:00:01.999872",
        "meta_mean_motion": 15.45637058,
        "meta_eccentricity": 0.0001243,
        "meta_inclination": 43.0003,
        "meta_ra_of_asc_node": 53.4788,
        "meta_arg_of_pericenter": 270.6181,
        "meta_mean_anomaly": 27.2072,
        "meta_ephemeris_type": 0,
        "meta_classification_type": "U",
        "meta_norad_cat_id": 66520,
        "meta_element_set_no": 999,
        "meta_rev_at_epoch": 500,
        "meta_bstar": -0.047394824,
        "meta_mean_motion_dot": -0.02076465,
        "meta_mean_motion_ddot": 0,
        "tle_line1": "1 66520U 25265E   25346.83335648 -.02076465  00000+0 -47395-1 0  9999",
        "tle_line2": "2 66520  43.0003  53.4788 0001243 270.6181  27.2072 15.45637058  5000"
      },
      "geometry": {
        "type": "Point",
        "coordinates": [
          127.31100251597562,
          42.43600608540936
        ]
      }
    },
    {
      "type": "Feature",
      "properties": {
        "norad_id": 66521,
        "name": "STARLINK-35915",
        "group": "last-30-days",
        "lat": 38.21364180451641,
        "lon": 170.71900801984089,
        "alt_km": 410.71694656689033,
        "timestamp": "2025-12-13T16:48:31.464758+00:00",
        "meta_object_name": "STARLINK-35915",
        "meta_object_id": "2025-265F",
        "meta_epoch": "2025-12-12T20:00:01.999872",
        "meta_mean_motion": 15.50691215,
        "meta_eccentricity": 0.00016678,
        "meta_inclination": 43.0005,
        "meta_ra_of_asc_node": 53.4494,
        "meta_arg_of_pericenter": 263.2895,
        "meta_mean_anomaly": 46.2395,
        "meta_ephemeris_type": 0,
        "meta_classification_type": "U",
        "meta_norad_cat_id": 66521,
        "meta_element_set_no": 999,
        "meta_rev_at_epoch": 500,
        "meta_bstar": -0.0035251663,
        "meta_mean_motion_dot": -0.002027,
        "meta_mean_motion_ddot": 0,
        "tle_line1": "1 66521U 25265F   25346.83335648 -.00202700  00000+0 -35252-2 0  9991",
        "tle_line2": "2 66521  43.0005  53.4494 0001667 263.2895  46.2395 15.50691215  5007"
      },
      "geometry": {
        "type": "Point",
        "coordinates": [
          170.71900801984089,
          38.21364180451641
        ]
      }
    },
    {
      "type": "Feature",
      "properties": {
        "norad_id": 66522,
        "name": "STARLINK-35946",
        "group": "last-30-days",
        "lat": 37.41339351234541,
        "lon": 173.20000611745544,
        "alt_km": 410.8545158041861,
        "timestamp": "2025-12-13T16:48:31.464771+00:00",
        "meta_object_name": "STARLINK-35946",
        "meta_object_id": "2025-265G",
        "meta_epoch": "2025-12-12T20:00:01.999872",
        "meta_mean_motion": 15.50514178,
        "meta_eccentricity": 0.00025229,
        "meta_inclination": 43.0004,
        "meta_ra_of_asc_node": 53.4432,
        "meta_arg_of_pericenter": 291.0157,
        "meta_mean_anomaly": 20.5567,
        "meta_ephemeris_type": 0,
        "meta_classification_type": "U",
        "meta_norad_cat_id": 66522,
        "meta_element_set_no": 999,
        "meta_rev_at_epoch": 500,
        "meta_bstar": 0.00038157451,
        "meta_mean_motion_dot": 0.00022056,
        "meta_mean_motion_ddot": 0,
        "tle_line1": "1 66522U 25265G   25346.83335648  .00022056  00000+0  38157-3 0  9992",
        "tle_line2": "2 66522  43.0004  53.4432 0002522 291.0157  20.5567 15.50514178  5008"
      },
      "geometry": {
        "type": "Point",
        "coordinates": [
          173.20000611745544,
          37.41339351234541
        ]
      }
    },
    {
      "type": "Feature",
      "properties": {
        "norad_id": 66523,
        "name": "STARLINK-35969",
        "group": "last-30-days",
        "lat": 36.727879984751354,
        "lon": 175.1722713454426,
        "alt_km": 412.8288310283042,
        "timestamp": "2025-12-13T16:48:31.464781+00:00",
        "meta_object_name": "STARLINK-35969",
        "meta_object_id": "2025-265H",
        "meta_epoch": "2025-12-12T20:00:01.999872",
        "meta_mean_motion": 15.50673434,
        "meta_eccentricity": 0.00042582,
        "meta_inclination": 43.0006,
        "meta_ra_of_asc_node": 53.4399,
        "meta_arg_of_pericenter": 287.5397,
        "meta_mean_anomaly": 25.8496,
        "meta_ephemeris_type": 0,
        "meta_classification_type": "U",
        "meta_norad_cat_id": 66523,
        "meta_element_set_no": 999,
        "meta_rev_at_epoch": 500,
        "meta_bstar": -0.0033581276,
        "meta_mean_motion_dot": -0.0019331,
        "meta_mean_motion_ddot": 0,
        "tle_line1": "1 66523U 25265H   25346.83335648 -.00193310  00000+0 -33581-2 0  9992",
        "tle_line2": "2 66523  43.0006  53.4399 0004258 287.5397  25.8496 15.50673434  5007"
      },
      "geometry": {
        "type": "Point",
        "coordinates": [
          175.1722713454426,
          36.727879984751354
        ]
      }
    },
    {
      "type": "Feature",
      "properties": {
        "norad_id": 66524,
        "name": "STARLINK-35687",
        "group": "last-30-days",
        "lat": 34.621773589752415,
        "lon": 96.32686742723386,
        "alt_km": 441.5087979311829,
        "timestamp": "2025-12-13T16:48:31.464791+00:00",
        "meta_object_name": "STARLINK-35687",
        "meta_object_id": "2025-265J",
        "meta_epoch": "2025-12-12T20:00:01.999872",
        "meta_mean_motion": 15.41058471,
        "meta_eccentricity": 0.00016269,
        "meta_inclination": 43.0005,
        "meta_ra_of_asc_node": 53.5154,
        "meta_arg_of_pericenter": 274.473,
        "meta_mean_anomaly": 7.9855,
        "meta_ephemeris_type": 0,
        "meta_classification_type": "U",
        "meta_norad_cat_id": 66524,
        "meta_element_set_no": 999,
        "meta_rev_at_epoch": 500,
        "meta_bstar": -0.014946456,
        "meta_mean_motion_dot": -0.0058591,
        "meta_mean_motion_ddot": 0,
        "tle_line1": "1 66524U 25265J   25346.83335648 -.00585910  00000+0 -14946-1 0  9997",
        "tle_line2": "2 66524  43.0005  53.5154 0001626 274.4730   7.9855 15.41058471  5007"
      },
      "geometry": {
        "type": "Point",
        "coordinates": [
          96.32686742723386,
          34.621773589752415
        ]
      }
    }
  ]
}